{
  "norad_id": 52470,
  "name": "STARLINK-3859",
  "history": [
    {
      "epoch": "2026-03-28T22:03:03.431808Z",
      "apogee_km": 540.7410208973224,
      "perigee_km": 538.7436907697074,
      "latitude_deg": 5.343814509430518e-05,
      "longitude_deg": 175.69970412459296,
      "height_km": 540.5860300966586,
      "semi_major_axis_km": 6917.879355833515,
      "eccentricity": 0.00014436,
      "inclination_deg": 53.2189,
      "raan_deg": 332.7963,
      "arg_perigee_deg": 87.0112,
      "mean_anomaly_deg": 273.1046,
      "mean_motion_rev_day": 15.08840338
    },
    {
      "epoch": "2026-03-29T01:13:49.538784Z",
      "apogee_km": 540.7528988286949,
      "perigee_km": 538.7176608039745,
      "latitude_deg": 3.297003523701809e-05,
      "longitude_deg": 127.28240013733557,
      "height_km": 540.5931213523232,
      "semi_major_axis_km": 6917.872279816334,
      "eccentricity": 0.0001471,
      "inclination_deg": 53.219,
      "raan_deg": 332.2017,
      "arg_perigee_deg": 87.8668,
      "mean_anomaly_deg": 272.2493,
      "mean_motion_rev_day": 15.08842653
    },
    {
      "epoch": "2026-03-30T01:04:36.513984Z",
      "apogee_km": 540.7197745059575,
      "perigee_km": 538.7384976445865,
      "latitude_deg": -1.9109317829054656e-05,
      "longitude_deg": 124.14719584170217,
      "height_km": 540.6163479770232,
      "semi_major_axis_km": 6917.866136075272,
      "eccentricity": 0.0001432,
      "inclination_deg": 53.2187,
      "raan_deg": 327.7416,
      "arg_perigee_deg": 89.5062,
      "mean_anomaly_deg": 270.6094,
      "mean_motion_rev_day": 15.08844663
    },
    {
      "epoch": "2026-03-30T01:04:36.514848Z",
      "apogee_km": 540.7194977913123,
      "perigee_km": 538.7387743592317,
      "latitude_deg": -1.542688314740793e-05,
      "longitude_deg": 124.14719496969668,
      "height_km": 540.6163503633176,
      "semi_major_axis_km": 6917.866136075272,
      "eccentricity": 0.00014316,
      "inclination_deg": 53.2187,
      "raan_deg": 327.7416,
      "arg_perigee_deg": 89.5062,
      "mean_anomaly_deg": 270.6094,
      "mean_motion_rev_day": 15.08844663
    },
    {
      "epoch": "2026-03-30T15:23:05.421408Z",
      "apogee_km": 540.7373761753925,
      "perigee_km": 538.7675763259249,
      "latitude_deg": -1.9294736133840427e-05,
      "longitude_deg": -93.73736111271866,
      "height_km": 540.6755309664499,
      "semi_major_axis_km": 6917.889476250658,
      "eccentricity": 0.00014237,
      "inclination_deg": 53.219,
      "raan_deg": 325.0651,
      "arg_perigee_deg": 91.5863,
      "mean_anomaly_deg": 268.5292,
      "mean_motion_rev_day": 15.08837027
    },
    {
      "epoch": "2026-03-30T21:44:38.041440Z",
      "apogee_km": 540.7568277028422,
      "perigee_km": 538.7518844300275,
      "latitude_deg": -1.000325420951776e-05,
      "longitude_deg": 169.42667194076031,
      "height_km": 540.6238889789446,
      "semi_major_axis_km": 6917.891356066435,
      "eccentricity": 0.00014491,
      "inclination_deg": 53.2176,
      "raan_deg": 323.8762,
      "arg_perigee_deg": 88.5097,
      "mean_anomaly_deg": 271.6061,
      "mean_motion_rev_day": 15.08836412
    },
    {
      "epoch": "2026-03-31T21:35:24.253728Z",
      "apogee_km": 540.7090953941452,
      "perigee_km": 538.6683368078966,
      "latitude_deg": -6.116608452231681e-06,
      "longitude_deg": 166.2939975960378,
      "height_km": 540.6223246484747,
      "semi_major_axis_km": 6917.825716101021,
      "eccentricity": 0.0001475,
      "inclination_deg": 53.219,
      "raan_deg": 319.4154,
      "arg_perigee_deg": 92.1277,
      "mean_anomaly_deg": 267.9884,
      "mean_motion_rev_day": 15.08857887
    },
    {
      "epoch": "2026-04-01T21:26:11.719680Z",
      "apogee_km": 540.7052717699971,
      "perigee_km": 538.7807175554826,
      "latitude_deg": -3.660421547076194e-05,
      "longitude_deg": 163.1557596621432,
      "height_km": 540.6100960233459,
      "semi_major_axis_km": 6917.87999466274,
      "eccentricity": 0.0001391,
      "inclination_deg": 53.2177,
      "raan_deg": 314.9543,
      "arg_perigee_deg": 88.2968,
      "mean_anomaly_deg": 271.8183,
      "mean_motion_rev_day": 15.08840129
    },
    {
      "epoch": "2026-04-02T00:36:57.963168Z",
      "apogee_km": 540.6853638923631,
      "perigee_km": 538.7973365330226,
      "latitude_deg": 4.506440542533331e-05,
      "longitude_deg": 114.73746141223113,
      "height_km": 540.6109836066571,
      "semi_major_axis_km": 6917.878350212693,
      "eccentricity": 0.00013646,
      "inclination_deg": 53.2177,
      "raan_deg": 314.3592,
      "arg_perigee_deg": 88.4161,
      "mean_anomaly_deg": 271.6988,
      "mean_motion_rev_day": 15.08840667
    },
    {
      "epoch": "2026-04-02T21:16:58.565280Z",
      "apogee_km": 540.7639947462403,
      "perigee_km": 538.6965209375621,
      "latitude_deg": 6.346681680036768e-06,
      "longitude_deg": 160.01936771631205,
      "height_km": 540.703651675965,
      "semi_major_axis_km": 6917.867257841901,
      "eccentricity": 0.00014943,
      "inclination_deg": 53.2188,
      "raan_deg": 310.4924,
      "arg_perigee_deg": 94.3118,
      "mean_anomaly_deg": 265.8045,
      "mean_motion_rev_day": 15.08844296
    },
    {
      "epoch": "2026-04-03T19:32:23.108640Z",
      "apogee_km": 540.7598819416335,
      "perigee_km": 538.7564595001941,
      "latitude_deg": 3.271791258930433e-05,
      "longitude_deg": -178.90943167809118,
      "height_km": 540.7887281260097,
      "semi_major_axis_km": 6917.8951707209135,
      "eccentricity": 0.0001448,
      "inclination_deg": 53.2183,
      "raan_deg": 306.3299,
      "arg_perigee_deg": 97.7377,
      "mean_anomaly_deg": 262.378,
      "mean_motion_rev_day": 15.08835164
    },
    {
      "epoch": "2026-04-04T00:18:32.467392Z",
      "apogee_km": 540.7604494628013,
      "perigee_km": 538.7483115758641,
      "latitude_deg": -8.546538749916575e-06,
      "longitude_deg": 108.46437600775624,
      "height_km": 540.7428338131114,
      "semi_major_axis_km": 6917.891380519332,
      "eccentricity": 0.00014543,
      "inclination_deg": 53.2183,
      "raan_deg": 305.4386,
      "arg_perigee_deg": 95.2911,
      "mean_anomaly_deg": 264.8247,
      "mean_motion_rev_day": 15.08836404
    },
    {
      "epoch": "2026-04-05T06:30:54.054144Z",
      "apogee_km": 541.151918160228,
      "perigee_km": 538.419338721993,
      "latitude_deg": -3.468425247689047e-05,
      "longitude_deg": 8.484694160325393,
      "height_km": 540.6663518242352,
      "semi_major_axis_km": 6917.92262844111,
      "eccentricity": 0.0001975,
      "inclination_deg": 53.2176,
      "raan_deg": 299.7894,
      "arg_perigee_deg": 89.4076,
      "mean_anomaly_deg": 270.7142,
      "mean_motion_rev_day": 15.08826181
    },
    {
      "epoch": "2026-04-05T20:49:21.719136Z",
      "apogee_km": 541.1640103010886,
      "perigee_km": 538.360877446431,
      "latitude_deg": -1.8140070520798137e-05,
      "longitude_deg": 150.60323886152415,
      "height_km": 541.1056817707994,
      "semi_major_axis_km": 6917.89944387376,
      "eccentricity": 0.0002026,
      "inclination_deg": 53.2181,
      "raan_deg": 297.1108,
      "arg_perigee_deg": 108.6526,
      "mean_anomaly_deg": 251.4686,
      "mean_motion_rev_day": 15.08833766
    },
    {
      "epoch": "2026-04-06T00:00:07.944480Z",
      "apogee_km": 541.0707092974317,
      "perigee_km": 538.4266933823792,
      "latitude_deg": 7.375673149967633e-05,
      "longitude_deg": 102.18702363601832,
      "height_km": 540.7742129840263,
      "semi_major_axis_km": 6917.885701339905,
      "eccentricity": 0.0001911,
      "inclination_deg": 53.2178,
      "raan_deg": 296.5177,
      "arg_perigee_deg": 95.6672,
      "mean_anomaly_deg": 264.4539,
      "mean_motion_rev_day": 15.08838262
    },
    {
      "epoch": "2026-04-07T06:12:27.823968Z",
      "apogee_km": 541.2679424523094,
      "perigee_km": 538.255612608621,
      "latitude_deg": 3.078878700596212e-05,
      "longitude_deg": 2.214360536971269,
      "height_km": 540.663492681391,
      "semi_major_axis_km": 6917.898777530465,
      "eccentricity": 0.00021772,
      "inclination_deg": 53.2175,
      "raan_deg": 290.8684,
      "arg_perigee_deg": 90.2733,
      "mean_anomaly_deg": 269.8509,
      "mean_motion_rev_day": 15.08833984
    },
    {
      "epoch": "2026-04-07T17:20:09.112416Z",
      "apogee_km": 541.2565335667014,
      "perigee_km": 538.1518064496022,
      "latitude_deg": -1.6589325333641994e-05,
      "longitude_deg": -167.24612754219126,
      "height_km": 540.6382341241134,
      "semi_major_axis_km": 6917.8411700081515,
      "eccentricity": 0.0002244,
      "inclination_deg": 53.2173,
      "raan_deg": 288.787,
      "arg_perigee_deg": 91.4632,
      "mean_anomaly_deg": 268.6617,
      "mean_motion_rev_day": 15.08852831
    },
    {
      "epoch": "2026-04-08T06:03:13.786560Z",
      "apogee_km": 541.2021537886103,
      "perigee_km": 538.2032702734441,
      "latitude_deg": 9.300000803793093e-06,
      "longitude_deg": -0.9178937505258524,
      "height_km": 540.7054714261884,
      "semi_major_axis_km": 6917.8397120310265,
      "eccentricity": 0.00021675,
      "inclination_deg": 53.2166,
      "raan_deg": 286.407,
      "arg_perigee_deg": 94.1416,
      "mean_anomaly_deg": 265.9824,
      "mean_motion_rev_day": 15.08853308
    },
    {
      "epoch": "2026-04-09T18:37:06.044160Z",
      "apogee_km": 541.3217603819276,
      "perigee_km": 538.1497773599449,
      "latitude_deg": -4.608830524155023e-05,
      "longitude_deg": 162.27256918933733,
      "height_km": 540.8416188816653,
      "semi_major_axis_km": 6917.872768870936,
      "eccentricity": 0.00022926,
      "inclination_deg": 53.2184,
      "raan_deg": 279.5669,
      "arg_perigee_deg": 97.6582,
      "mean_anomaly_deg": 262.467,
      "mean_motion_rev_day": 15.08842493
    }
  ]
}